NORAD_CAT_ID,OBJECT_NAME,OBJECT_TYPE,EPOCH,MEAN_MOTION,ECCENTRICITY,INCLINATION,RA_OF_ASC_NODE,ARG_OF_PERICENTER,MEAN_ANOMALY,BSTAR,MEAN_MOTION_DOT,MEAN_MOTION_DDOT,TLE_LINE0,TLE_LINE1,TLE_LINE2,SEMIMAJOR_AXIS,PERIOD,APOGEE,PERIGEE,DECAYED
51876.0,STARLINK-3583,PAYLOAD,2023-12-10 14:54:31,15.08849754,0.0001204,53.219,90.552,80.8791,279.2337,3.865e-05,3.27e-06,0.0,0 STARLINK-3583,1 51876U 22022AA  23344.62120126  .00000327  00000-0  38650-4 0  9999,2 51876  53.2190  90.5520 0001204  80.8791 279.2337 15.08849754 99316,6917.851,95.437,540.548,538.883,0.0
51876.0,STARLINK-3583,PAYLOAD,2023-12-11 13:09:55,15.08849287,0.0001523,53.2198,86.3837,66.1754,293.9398,-2.4215e-05,-6.73e-06,0.0,0 STARLINK-3583,1 51876U 22022AA  23345.54855947 -.00000673  00000-0 -24215-4 0  9995,2 51876  53.2198  86.3837 0001523  66.1754 293.9398 15.08849287 99454,6917.852,95.437,540.771,538.663,0.0
51876.0,STARLINK-3583,PAYLOAD,2023-12-12 11:25:19,15.08840684,0.0001519,53.2191,82.228,62.4417,297.6729,1.381e-05,-6.8e-07,0.0,0 STARLINK-3583,1 51876U 22022AA  23346.47592164 -.00000068  00000-0  13810-4 0  9993,2 51876  53.2191  82.2280 0001519  62.4417 297.6729 15.08840684 99590,6917.878,95.438,540.794,538.692,0.0
51876.0,STARLINK-3583,PAYLOAD,2023-12-12 13:00:42,15.08842262,0.0001685,53.2192,81.9303,58.1024,302.0132,2.2296e-05,6.7e-07,0.0,0 STARLINK-3583,1 51876U 22022AA  23346.54216079  .00000067  00000-0  22296-4 0  9995,2 51876  53.2192  81.9303 0001685  58.1024 302.0132 15.08842262 99608,6917.873,95.437,540.904,538.573,0.0
51876.0,STARLINK-3583,PAYLOAD,2023-12-13 12:51:29,15.0884232,0.0001366,53.2186,77.4708,83.4331,276.6817,6.4773e-05,7.43e-06,0.0,0 STARLINK-3583,1 51876U 22022AA  23347.53575635  .00000743  00000-0  64773-4 0  9998,2 51876  53.2186  77.4708 0001366  83.4331 276.6817 15.08842320 99755,6917.873,95.437,540.683,538.793,0.0
51876.0,STARLINK-3583,PAYLOAD,2023-12-14 11:06:53,15.08838115,0.0001426,53.2194,73.3065,96.9612,263.1542,1.5742e-05,-3.7e-07,0.0,0 STARLINK-3583,1 51876U 22022AA  23348.46312031 -.00000037  00000-0  15742-4 0  9999,2 51876  53.2194  73.3065 0001426  96.9612 263.1542 15.08838115 99891,6917.886,95.438,540.738,538.765,0.0
51876.0,STARLINK-3583,PAYLOAD,2023-12-14 12:42:16,15.08839882,0.0001418,53.2191,73.0066,95.5954,264.52,3.1712e-05,2.17e-06,0.0,0 STARLINK-3583,1 51876U 22022AA  23348.52935859  .00000217  00000-0  31712-4 0  9999,2 51876  53.2191  73.0066 0001418  95.5954 264.5200 15.08839882 99901,6917.881,95.438,540.727,538.765,0.0
51876.0,STARLINK-3583,PAYLOAD,2023-12-15 10:57:41,15.08835,0.0001424,53.2182,68.8452,95.8231,264.2923,-5.1013e-05,-1.1e-05,0.0,0 STARLINK-3583,1 51876U 22022AA  23349.45672735 -.00001100  00000-0 -51013-4 0  9993,2 51876  53.2182  68.8452 0001424  95.8231 264.2923 15.08835000100045,6917.896,95.438,540.746,538.776,0.0
51876.0,STARLINK-3583,PAYLOAD,2023-12-16 10:48:28,15.08829459,0.0001501,53.2182,64.3842,96.0993,264.017,0.00017665,2.524e-05,0.0,0 STARLINK-3583,1 51876U 22022AA  23350.45032586  .00002524  00000-0  17665-3 0  9992,2 51876  53.2182  64.3842 0001501  96.0993 264.0170 15.08829459100192,6917.913,95.438,540.816,538.739,0.0
51876.0,STARLINK-3583,PAYLOAD,2023-12-17 12:14:38,15.08837598,0.0001538,53.2185,59.6269,84.6027,275.5141,5.9976e-05,6.67e-06,0.0,0 STARLINK-3583,1 51876U 22022AA  23351.51017000  .00000667  00000-0  59976-4 0  9992,2 51876  53.2185  59.6269 0001538  84.6027 275.5141 15.08837598100352,6917.888,95.438,540.817,538.689,0.0
51876.0,STARLINK-3583,PAYLOAD,2023-12-17 23:22:20,15.08844495,0.000152,53.2182,57.5484,89.8248,270.2918,0.00013184,1.811e-05,0.0,0 STARLINK-3583,1 51876U 22022AA  23351.97384336  .00001811  00000-0  13184-3 0  9993,2 51876  53.2182  57.5484 0001520  89.8248 270.2918 15.08844495100424,6917.867,95.437,540.783,538.68,0.0
51876.0,STARLINK-3583,PAYLOAD,2023-12-18 12:05:24,15.08838376,0.0001608,53.2182,55.1695,92.1085,268.0091,0.00030978,4.645e-05,0.0,0 STARLINK-3583,1 51876U 22022AA  23352.50376096  .00004645  00000-0  30978-3 0  9995,2 51876  53.2182  55.1695 0001608  92.1085 268.0091 15.08838376100502,6917.885,95.438,540.863,538.638,0.0
51876.0,STARLINK-3583,PAYLOAD,2023-12-18 23:13:07,15.08844973,0.0001444,53.2194,53.0897,99.584,260.5315,4.6907e-05,4.59e-06,0.0,0 STARLINK-3583,1 51876U 22022AA  23352.96744378  .00000459  00000-0  46907-4 0  9996,2 51876  53.2194  53.0897 0001444  99.5840 260.5315 15.08844973100577,6917.865,95.437,540.729,538.731,0.0
51876.0,STARLINK-3583,PAYLOAD,2023-12-19 10:20:49,15.08842466,0.000145,53.2189,51.0079,97.3233,262.7924,2.6397e-05,1.32e-06,0.0,0 STARLINK-3583,1 51876U 22022AA  23353.43112624  .00000132  00000-0  26397-4 0  9991,2 51876  53.2189  51.0079 0001450  97.3233 262.7924 15.08842466100643,6917.873,95.437,540.741,538.735,0.0
51876.0,STARLINK-3583,PAYLOAD,2023-12-19 23:03:54,15.08837681,0.0001469,53.2194,48.6303,88.9967,271.1193,-4.1344e-05,-9.46e-06,0.0,0 STARLINK-3583,1 51876U 22022AA  23353.96105160 -.00000946  00000-0 -41344-4 0  9990,2 51876  53.2194  48.6303 0001469  88.9967 271.1193 15.08837681100725,6917.887,95.438,540.769,538.736,0.0
51876.0,STARLINK-3583,PAYLOAD,2023-12-20 10:11:37,15.08833456,0.0001597,53.2198,46.5503,74.3304,285.7864,-7.8012e-05,-1.529e-05,0.0,0 STARLINK-3583,1 51876U 22022AA  23354.42473788 -.00001529  00000-0 -78012-4 0  9996,2 51876  53.2198  46.5503 0001597  74.3304 285.7864 15.08833456100793,6917.9,95.438,540.87,538.661,0.0
51876.0,STARLINK-3583,PAYLOAD,2023-12-21 08:27:00,15.08842031,0.0001566,53.2193,42.3862,85.1345,274.9826,0.00017892,2.561e-05,0.0,0 STARLINK-3583,1 51876U 22022AA  23355.35208686  .00002561  00000-0  17892-3 0  9995,2 51876  53.2193  42.3862 0001566  85.1345 274.9826 15.08842031100934,6917.874,95.437,540.823,538.656,0.0
51876.0,STARLINK-3583,PAYLOAD,2023-12-22 09:53:09,15.08864493,0.0001684,53.2184,37.6263,113.3377,246.7793,0.00052692,8.113e-05,0.0,0 STARLINK-3583,1 51876U 22022AA  23356.41192104  .00008113  00000-0  52692-3 0  9996,2 51876  53.2184  37.6263 0001684 113.3377 246.7793 15.08864493101090,6917.806,95.436,540.835,538.506,0.0
51876.0,STARLINK-3583,PAYLOAD,2023-12-23 03:22:24,15.08852301,0.0001979,53.2186,34.3518,116.3254,243.7942,-1.7873e-05,-5.73e-06,0.0,0 STARLINK-3583,1 51876U 22022AA  23357.14056128 -.00000573  00000-0 -17873-4 0  9999,2 51876  53.2186  34.3518 0001979 116.3254 243.7942 15.08852301101204,6917.843,95.437,541.077,538.339,0.0
51876.0,STARLINK-3583,PAYLOAD,2023-12-23 06:33:11,15.08835366,0.0001742,53.2185,33.7575,112.2615,247.8562,-0.00024976,-4.26e-05,0.0,0 STARLINK-3583,1 51876U 22022AA  23357.27304843 -.00004260  00000-0 -24976-3 0  9991,2 51876  53.2185  33.7575 0001742 112.2615 247.8562 15.08835366101220,6917.895,95.438,540.965,538.554,0.0
51876.0,STARLINK-3583,PAYLOAD,2023-12-24 09:34:44,15.08848285,0.0001571,53.2176,28.7015,92.7407,267.3765,-6.1999e-05,-1.275e-05,0.0,0 STARLINK-3583,1 51876U 22022AA  23358.39912573 -.00001275  00000-0 -61999-4 0  9990,2 51876  53.2176  28.7015 0001571  92.7407 267.3765 15.08848285101398,6917.855,95.437,540.807,538.633,0.0
51876.0,STARLINK-3583,PAYLOAD,2023-12-24 23:53:13,15.0884685,0.000181,53.2178,26.0275,101.9221,258.1974,-0.0001293,-2.346e-05,0.0,0 STARLINK-3583,1 51876U 22022AA  23358.99529098 -.00002346  00000-0 -12930-3 0  9992,2 51876  53.2178  26.0275 0001810 101.9221 258.1974 15.08846850101488,6917.859,95.437,540.977,538.472,0.0
51876.0,STARLINK-3583,PAYLOAD,2023-12-25 11:00:55,15.08843588,0.0001554,53.2174,23.9441,93.4883,266.6287,0.00027523,4.095e-05,0.0,0 STARLINK-3583,1 51876U 22022AA  23359.45897335  .00004095  00000-0  27523-3 0  9991,2 51876  53.2174  23.9441 0001554  93.4883 266.6287 15.08843588101553,6917.869,95.437,540.809,538.659,0.0
51876.0,STARLINK-3583,PAYLOAD,2023-12-26 01:19:24,15.08833582,0.000183,53.2162,21.2703,62.3269,297.7909,2.3274e-05,8.2e-07,0.0,0 STARLINK-3583,1 51876U 22022AA  23360.05514311  .00000082  00000-0  23274-4 0  9991,2 51876  53.2162  21.2703 0001830  62.3269 297.7909 15.08833582101641,6917.9,95.438,541.031,538.499,0.0
51876.0,STARLINK-3583,PAYLOAD,2023-12-26 07:40:56,15.08835817,0.0001738,53.2167,20.0803,93.233,266.8861,4.3353e-05,4.02e-06,0.0,0 STARLINK-3583,1 51876U 22022AA  23360.32010104  .00000402  00000-0  43353-4 0  9998,2 51876  53.2167  20.0803 0001738  93.2330 266.8861 15.08835817101684,6917.893,95.438,540.961,538.556,0.0
51876.0,STARLINK-3583,PAYLOAD,2023-12-26 23:34:47,15.08840977,0.0001679,53.2166,17.1049,107.7752,252.3424,0.00014748,2.06e-05,0.0,0 STARLINK-3583,1 51876U 22022AA  23360.98249879  .00002060  00000-0  14748-3 0  9990,2 51876  53.2166  17.1049 0001679 107.7752 252.3424 15.08840977101784,6917.877,95.437,540.904,538.581,0.0
51876.0,STARLINK-3583,PAYLOAD,2023-12-27 10:42:29,15.08845583,0.0001592,53.216,15.0247,81.6939,278.4234,0.00020688,3.007e-05,0.0,0 STARLINK-3583,1 51876U 22022AA  23361.44617915  .00003007  00000-0  20688-3 0  9994,2 51876  53.2160  15.0247 0001592  81.6939 278.4234 15.08845583101850,6917.863,95.437,540.83,538.627,0.0
51876.0,STARLINK-3583,PAYLOAD,2023-12-28 04:11:44,15.08847366,0.0001772,53.2174,11.756,94.345,265.7745,0.00023325,3.427e-05,0.0,0 STARLINK-3583,1 51876U 22022AA  23362.17481622  .00003427  00000-0  23325-3 0  9996,2 51876  53.2174  11.7560 0001772  94.3450 265.7745 15.08847366101964,6917.858,95.437,540.949,538.497,0.0
51876.0,STARLINK-3583,PAYLOAD,2023-12-28 07:22:30,15.08855207,0.0001993,53.2183,11.1599,98.5478,261.574,0.00031158,4.676e-05,0.0,0 STARLINK-3583,1 51876U 22022AA  23362.30729333  .00004676  00000-0  31158-3 0  9995,2 51876  53.2183  11.1599 0001993  98.5478 261.5740 15.08855207101985,6917.834,95.437,541.078,538.32,0.0
51876.0,STARLINK-3583,PAYLOAD,2023-12-29 04:02:31,15.08839216,0.0002297,53.218,7.2908,120.5259,239.596,2.9775e-05,1.86e-06,0.0,0 STARLINK-3583,1 51876U 22022AA  23363.16842001  .00000186  00000-0  29775-4 0  9993,2 51876  53.2180   7.2908 0002297 120.5259 239.5960 15.08839216102110,6917.883,95.438,541.337,538.159,0.0
